EventId,Type,Severity,StartTime(UTC),EndTime(UTC),Precipitation(in),TimeZone,AirportCode,LocationLat,LocationLng,City,County,State,ZipCode
W-1,Snow,Light,1/6/2016 23:14,1/7/2016 0:34,0,US/Mountain,K04V,38.0972,-106.1689,Saguache,Saguache,CO,81149
W-2,Snow,Light,1/7/2016 4:14,1/7/2016 4:54,0,US/Mountain,K04V,38.0972,-106.1689,Saguache,Saguache,CO,81149
W-3,Snow,Light,1/7/2016 5:54,1/7/2016 15:34,0.03,US/Mountain,K04V,38.0972,-106.1689,Saguache,Saguache,CO,81149
W-4,Snow,Light,1/8/2016 5:34,1/8/2016 5:54,0,US/Mountain,K04V,38.0972,-106.1689,Saguache,Saguache,CO,81149
W-5,Snow,Light,1/8/2016 13:54,1/8/2016 15:54,0,US/Mountain,K04V,38.0972,-106.1689,Saguache,Saguache,CO,81149
W-6,Snow,Light,1/8/2016 16:14,1/8/2016 17:34,0,US/Mountain,K04V,38.0972,-106.1689,Saguache,Saguache,CO,81149
W-7,Fog,Severe,1/9/2016 12:54,1/9/2016 15:34,0,US/Mountain,K04V,38.0972,-106.1689,Saguache,Saguache,CO,81149
W-8,Snow,Light,1/9/2016 15:34,1/9/2016 16:14,0,US/Mountain,K04V,38.0972,-106.1689,Saguache,Saguache,CO,81149
W-9,Fog,Severe,1/9/2016 16:14,1/9/2016 16:34,0,US/Mountain,K04V,38.0972,-106.1689,Saguache,Saguache,CO,81149
W-10,Snow,Light,1/9/2016 16:34,1/9/2016 16:54,0,US/Mountain,K04V,38.0972,-106.1689,Saguache,Saguache,CO,81149
W-11,Cold,Severe,1/9/2016 16:54,1/9/2016 20:34,0,US/Mountain,K04V,38.0972,-106.1689,Saguache,Saguache,CO,81149
W-12,Fog,Severe,1/10/2016 2:54,1/10/2016 4:14,0,US/Mountain,K04V,38.0972,-106.1689,Saguache,Saguache,CO,81149
W-13,Fog,Severe,1/10/2016 9:34,1/10/2016 10:14,0,US/Mountain,K04V,38.0972,-106.1689,Saguache,Saguache,CO,81149
W-14,Snow,Light,1/10/2016 10:14,1/10/2016 10:34,0,US/Mountain,K04V,38.0972,-106.1689,Saguache,Saguache,CO,81149
W-15,Fog,Severe,1/10/2016 10:34,1/10/2016 10:54,0,US/Mountain,K04V,38.0972,-106.1689,Saguache,Saguache,CO,81149
W-16,Fog,Severe,1/10/2016 11:14,1/10/2016 13:14,0,US/Mountain,K04V,38.0972,-106.1689,Saguache,Saguache,CO,81149
W-17,Cold,Severe,1/10/2016 13:14,1/10/2016 21:34,0,US/Mountain,K04V,38.0972,-106.1689,Saguache,Saguache,CO,81149
W-18,Cold,Severe,1/11/2016 12:14,1/11/2016 12:54,0,US/Mountain,K04V,38.0972,-106.1689,Saguache,Saguache,CO,81149
W-19,Snow,Light,1/16/2016 9:14,1/16/2016 9:54,0,US/Mountain,K04V,38.0972,-106.1689,Saguache,Saguache,CO,81149
W-20,Snow,Light,1/16/2016 10:34,1/16/2016 11:34,0,US/Mountain,K04V,38.0972,-106.1689,Saguache,Saguache,CO,81149
W-21,Snow,Light,1/16/2016 13:24,1/16/2016 14:14,0,US/Mountain,K04V,38.0972,-106.1689,Saguache,Saguache,CO,81149
W-22,Snow,Light,1/16/2016 15:34,1/16/2016 15:54,0,US/Mountain,K04V,38.0972,-106.1689,Saguache,Saguache,CO,81149
W-23,Snow,Light,1/17/2016 7:55,1/17/2016 8:15,0,US/Mountain,K04V,38.0972,-106.1689,Saguache,Saguache,CO,81149
W-24,Snow,Light,1/17/2016 8:35,1/17/2016 10:15,0,US/Mountain,K04V,38.0972,-106.1689,Saguache,Saguache,CO,81149
W-25,Snow,Light,1/17/2016 11:55,1/17/2016 12:55,0,US/Mountain,K04V,38.0972,-106.1689,Saguache,Saguache,CO,81149
W-26,Snow,Light,1/17/2016 13:55,1/17/2016 14:15,0,US/Mountain,K04V,38.0972,-106.1689,Saguache,Saguache,CO,81149
W-27,Snow,Light,1/17/2016 14:55,1/17/2016 15:15,0,US/Mountain,K04V,38.0972,-106.1689,Saguache,Saguache,CO,81149
W-28,Snow,Light,1/20/2016 13:55,1/20/2016 14:15,0,US/Mountain,K04V,38.0972,-106.1689,Saguache,Saguache,CO,81149
W-29,Snow,Light,1/20/2016 22:34,1/20/2016 22:55,0,US/Mountain,K04V,38.0972,-106.1689,Saguache,Saguache,CO,81149
W-30,Snow,Light,1/21/2016 2:15,1/21/2016 2:35,0,US/Mountain,K04V,38.0972,-106.1689,Saguache,Saguache,CO,81149
W-31,Snow,Light,1/24/2016 20:35,1/24/2016 21:35,0.01,US/Mountain,K04V,38.0972,-106.1689,Saguache,Saguache,CO,81149
W-32,Snow,Light,1/31/2016 7:55,1/31/2016 8:35,0,US/Mountain,K04V,38.0972,-106.1689,Saguache,Saguache,CO,81149
W-33,Snow,Light,1/31/2016 8:55,1/31/2016 9:55,0,US/Mountain,K04V,38.0972,-106.1689,Saguache,Saguache,CO,81149
W-34,Snow,Light,1/31/2016 10:15,1/31/2016 10:35,0,US/Mountain,K04V,38.0972,-106.1689,Saguache,Saguache,CO,81149
W-35,Snow,Light,1/31/2016 11:15,1/31/2016 11:35,0,US/Mountain,K04V,38.0972,-106.1689,Saguache,Saguache,CO,81149
W-36,Snow,Light,1/31/2016 12:15,1/31/2016 12:55,0,US/Mountain,K04V,38.0972,-106.1689,Saguache,Saguache,CO,81149
W-37,Snow,Light,1/31/2016 13:55,1/31/2016 15:35,0,US/Mountain,K04V,38.0972,-106.1689,Saguache,Saguache,CO,81149
W-38,Fog,Moderate,1/31/2016 15:35,1/31/2016 16:15,0,US/Mountain,K04V,38.0972,-106.1689,Saguache,Saguache,CO,81149
W-39,Snow,Light,1/31/2016 16:15,1/31/2016 18:15,0,US/Mountain,K04V,38.0972,-106.1689,Saguache,Saguache,CO,81149
W-40,Snow,Light,2/1/2016 2:15,2/1/2016 2:55,0,US/Mountain,K04V,38.0972,-106.1689,Saguache,Saguache,CO,81149
W-41,Snow,Light,2/1/2016 3:15,2/1/2016 3:35,0,US/Mountain,K04V,38.0972,-106.1689,Saguache,Saguache,CO,81149
W-42,Snow,Light,2/1/2016 4:55,2/1/2016 5:15,0,US/Mountain,K04V,38.0972,-106.1689,Saguache,Saguache,CO,81149
W-43,Snow,Light,2/1/2016 5:35,2/1/2016 7:35,0.03,US/Mountain,K04V,38.0972,-106.1689,Saguache,Saguache,CO,81149
W-44,Snow,Light,2/1/2016 8:15,2/1/2016 12:35,0.11,US/Mountain,K04V,38.0972,-106.1689,Saguache,Saguache,CO,81149
W-45,Snow,Light,2/1/2016 19:15,2/1/2016 19:35,0,US/Mountain,K04V,38.0972,-106.1689,Saguache,Saguache,CO,81149
W-46,Snow,Light,2/1/2016 19:55,2/1/2016 20:35,0,US/Mountain,K04V,38.0972,-106.1689,Saguache,Saguache,CO,81149
W-47,Snow,Light,2/2/2016 1:15,2/2/2016 1:55,0,US/Mountain,K04V,38.0972,-106.1689,Saguache,Saguache,CO,81149
W-48,Cold,Severe,2/4/2016 13:25,2/4/2016 14:35,0,US/Mountain,K04V,38.0972,-106.1689,Saguache,Saguache,CO,81149
W-49,Storm,Severe,2/14/2016 18:56,2/14/2016 20:16,0,US/Mountain,K04V,38.0972,-106.1689,Saguache,Saguache,CO,81149
W-50,Storm,Severe,2/14/2016 20:36,2/14/2016 21:56,0,US/Mountain,K04V,38.0972,-106.1689,Saguache,Saguache,CO,81149
W-51,Cold,Severe,2/16/2016 18:36,2/16/2016 19:54,0,US/Mountain,K04V,38.0972,-106.1689,Saguache,Saguache,CO,81149
W-52,Rain,Light,2/19/2016 4:34,2/19/2016 5:14,0,US/Mountain,K04V,38.0972,-106.1689,Saguache,Saguache,CO,81149
W-53,Snow,Light,2/23/2016 3:54,2/23/2016 5:34,0.02,US/Mountain,K04V,38.0972,-106.1689,Saguache,Saguache,CO,81149
W-54,Snow,Moderate,2/23/2016 5:34,2/23/2016 6:14,0.07,US/Mountain,K04V,38.0972,-106.1689,Saguache,Saguache,CO,81149
W-55,Snow,Light,2/23/2016 6:14,2/23/2016 7:14,0.03,US/Mountain,K04V,38.0972,-106.1689,Saguache,Saguache,CO,81149
W-56,Snow,Light,3/15/2016 6:14,3/15/2016 8:14,0,US/Mountain,K04V,38.0972,-106.1689,Saguache,Saguache,CO,81149
W-57,Snow,Light,3/15/2016 9:14,3/15/2016 9:33,0,US/Mountain,K04V,38.0972,-106.1689,Saguache,Saguache,CO,81149
W-58,Snow,Light,3/15/2016 12:34,3/15/2016 13:14,0,US/Mountain,K04V,38.0972,-106.1689,Saguache,Saguache,CO,81149
W-59,Snow,Light,3/15/2016 14:54,3/15/2016 15:14,0,US/Mountain,K04V,38.0972,-106.1689,Saguache,Saguache,CO,81149
W-60,Snow,Light,3/16/2016 7:54,3/16/2016 8:54,0,US/Mountain,K04V,38.0972,-106.1689,Saguache,Saguache,CO,81149
W-61,Snow,Light,3/16/2016 9:34,3/16/2016 11:14,0,US/Mountain,K04V,38.0972,-106.1689,Saguache,Saguache,CO,81149
W-62,Storm,Severe,3/18/2016 20:54,3/18/2016 21:14,0,US/Mountain,K04V,38.0972,-106.1689,Saguache,Saguache,CO,81149
W-63,Storm,Severe,3/18/2016 22:34,3/18/2016 22:54,0,US/Mountain,K04V,38.0972,-106.1689,Saguache,Saguache,CO,81149
W-64,Storm,Severe,3/18/2016 23:14,3/18/2016 23:54,0,US/Mountain,K04V,38.0972,-106.1689,Saguache,Saguache,CO,81149
W-65,Storm,Severe,3/19/2016 0:14,3/19/2016 0:34,0,US/Mountain,K04V,38.0972,-106.1689,Saguache,Saguache,CO,81149
W-66,Storm,Severe,3/19/2016 0:54,3/19/2016 1:14,0,US/Mountain,K04V,38.0972,-106.1689,Saguache,Saguache,CO,81149
W-67,Storm,Severe,3/22/2016 18:34,3/22/2016 18:54,0,US/Mountain,K04V,38.0972,-106.1689,Saguache,Saguache,CO,81149
W-68,Snow,Light,3/23/2016 5:54,3/23/2016 6:14,0,US/Mountain,K04V,38.0972,-106.1689,Saguache,Saguache,CO,81149
W-69,Snow,Light,3/23/2016 6:34,3/23/2016 6:54,0,US/Mountain,K04V,38.0972,-106.1689,Saguache,Saguache,CO,81149
W-70,Snow,Light,3/23/2016 7:34,3/23/2016 7:54,0,US/Mountain,K04V,38.0972,-106.1689,Saguache,Saguache,CO,81149
W-71,Storm,Severe,3/23/2016 13:14,3/23/2016 14:14,0,US/Mountain,K04V,38.0972,-106.1689,Saguache,Saguache,CO,81149
W-72,Storm,Severe,3/23/2016 14:54,3/23/2016 15:34,0,US/Mountain,K04V,38.0972,-106.1689,Saguache,Saguache,CO,81149
W-73,Storm,Severe,3/23/2016 15:54,3/23/2016 16:14,0,US/Mountain,K04V,38.0972,-106.1689,Saguache,Saguache,CO,81149
W-74,Snow,Light,3/26/2016 13:24,3/26/2016 15:14,0,US/Mountain,K04V,38.0972,-106.1689,Saguache,Saguache,CO,81149
W-75,Snow,Light,3/26/2016 16:54,3/26/2016 18:14,0,US/Mountain,K04V,38.0972,-106.1689,Saguache,Saguache,CO,81149
W-76,Snow,Light,3/26/2016 18:34,3/26/2016 19:14,0,US/Mountain,K04V,38.0972,-106.1689,Saguache,Saguache,CO,81149
W-77,Snow,Light,3/26/2016 19:34,3/26/2016 23:54,0.01,US/Mountain,K04V,38.0972,-106.1689,Saguache,Saguache,CO,81149
W-78,Snow,Light,3/27/2016 4:34,3/27/2016 5:54,0.02,US/Mountain,K04V,38.0972,-106.1689,Saguache,Saguache,CO,81149
W-79,Snow,Light,3/27/2016 11:14,3/27/2016 11:34,0,US/Mountain,K04V,38.0972,-106.1689,Saguache,Saguache,CO,81149
W-80,Snow,Light,3/31/2016 10:34,3/31/2016 10:54,0,US/Mountain,K04V,38.0972,-106.1689,Saguache,Saguache,CO,81149
W-81,Fog,Moderate,3/31/2016 22:14,3/31/2016 22:34,0,US/Mountain,K04V,38.0972,-106.1689,Saguache,Saguache,CO,81149
W-82,Snow,Light,4/1/2016 0:54,4/1/2016 1:34,0.02,US/Mountain,K04V,38.0972,-106.1689,Saguache,Saguache,CO,81149
W-83,Rain,Light,4/9/2016 20:55,4/9/2016 21:15,0,US/Mountain,K04V,38.0972,-106.1689,Saguache,Saguache,CO,81149
W-84,Rain,Light,4/9/2016 22:55,4/10/2016 0:15,0.06,US/Mountain,K04V,38.0972,-106.1689,Saguache,Saguache,CO,81149
W-85,Rain,Light,4/11/2016 6:15,4/11/2016 6:35,0,US/Mountain,K04V,38.0972,-106.1689,Saguache,Saguache,CO,81149
W-86,Rain,Light,4/11/2016 21:55,4/11/2016 22:15,0,US/Mountain,K04V,38.0972,-106.1689,Saguache,Saguache,CO,81149
W-87,Rain,Light,4/12/2016 3:55,4/12/2016 4:55,0,US/Mountain,K04V,38.0972,-106.1689,Saguache,Saguache,CO,81149
W-88,Rain,Light,4/12/2016 23:15,4/12/2016 23:35,0,US/Mountain,K04V,38.0972,-106.1689,Saguache,Saguache,CO,81149
W-89,Rain,Light,4/12/2016 23:55,4/13/2016 0:55,0.01,US/Mountain,K04V,38.0972,-106.1689,Saguache,Saguache,CO,81149
W-90,Rain,Light,4/13/2016 2:35,4/13/2016 2:55,0,US/Mountain,K04V,38.0972,-106.1689,Saguache,Saguache,CO,81149
W-91,Rain,Light,4/15/2016 21:55,4/15/2016 22:15,0,US/Mountain,K04V,38.0972,-106.1689,Saguache,Saguache,CO,81149
W-92,Rain,Light,4/15/2016 22:55,4/15/2016 23:15,0,US/Mountain,K04V,38.0972,-106.1689,Saguache,Saguache,CO,81149
W-93,Fog,Severe,4/15/2016 23:35,4/15/2016 23:55,0,US/Mountain,K04V,38.0972,-106.1689,Saguache,Saguache,CO,81149
W-94,Fog,Moderate,4/15/2016 23:55,4/16/2016 0:15,0,US/Mountain,K04V,38.0972,-106.1689,Saguache,Saguache,CO,81149
W-95,Rain,Light,4/16/2016 0:55,4/16/2016 1:15,0,US/Mountain,K04V,38.0972,-106.1689,Saguache,Saguache,CO,81149
W-96,Rain,Light,4/16/2016 1:55,4/16/2016 2:15,0,US/Mountain,K04V,38.0972,-106.1689,Saguache,Saguache,CO,81149
W-97,Rain,Light,4/16/2016 4:15,4/16/2016 5:15,0.04,US/Mountain,K04V,38.0972,-106.1689,Saguache,Saguache,CO,81149
W-98,Snow,Moderate,4/16/2016 5:15,4/16/2016 5:35,0.04,US/Mountain,K04V,38.0972,-106.1689,Saguache,Saguache,CO,81149
W-99,Rain,Light,4/16/2016 6:55,4/16/2016 7:15,0,US/Mountain,K04V,38.0972,-106.1689,Saguache,Saguache,CO,81149
W-100,Rain,Light,4/16/2016 9:15,4/16/2016 9:35,0,US/Mountain,K04V,38.0972,-106.1689,Saguache,Saguache,CO,81149
W-101,Snow,Light,4/16/2016 9:35,4/16/2016 10:15,0.03,US/Mountain,K04V,38.0972,-106.1689,Saguache,Saguache,CO,81149
W-102,Snow,Moderate,4/16/2016 10:15,4/16/2016 10:35,0.03,US/Mountain,K04V,38.0972,-106.1689,Saguache,Saguache,CO,81149
W-103,Snow,Heavy,4/16/2016 10:35,4/16/2016 11:15,0.19,US/Mountain,K04V,38.0972,-106.1689,Saguache,Saguache,CO,81149
W-104,Snow,Light,4/16/2016 11:15,4/16/2016 14:35,0.03,US/Mountain,K04V,38.0972,-106.1689,Saguache,Saguache,CO,81149
W-105,Rain,Light,4/16/2016 15:15,4/16/2016 15:55,0,US/Mountain,K04V,38.0972,-106.1689,Saguache,Saguache,CO,81149
W-106,Snow,Light,4/16/2016 15:55,4/16/2016 16:35,0,US/Mountain,K04V,38.0972,-106.1689,Saguache,Saguache,CO,81149
W-107,Rain,Light,4/16/2016 17:35,4/16/2016 17:55,0,US/Mountain,K04V,38.0972,-106.1689,Saguache,Saguache,CO,81149
W-108,Snow,Light,4/16/2016 17:55,4/16/2016 18:15,0,US/Mountain,K04V,38.0972,-106.1689,Saguache,Saguache,CO,81149
W-109,Snow,Light,4/16/2016 18:35,4/16/2016 18:55,0,US/Mountain,K04V,38.0972,-106.1689,Saguache,Saguache,CO,81149
W-110,Snow,Light,4/16/2016 21:35,4/16/2016 21:55,0,US/Mountain,K04V,38.0972,-106.1689,Saguache,Saguache,CO,81149
W-111,Snow,Light,4/16/2016 22:55,4/16/2016 23:15,0,US/Mountain,K04V,38.0972,-106.1689,Saguache,Saguache,CO,81149
W-112,Snow,Light,4/17/2016 0:15,4/17/2016 0:55,0,US/Mountain,K04V,38.0972,-106.1689,Saguache,Saguache,CO,81149
W-113,Snow,Light,4/17/2016 1:35,4/17/2016 1:55,0,US/Mountain,K04V,38.0972,-106.1689,Saguache,Saguache,CO,81149
W-114,Snow,Light,4/18/2016 5:15,4/18/2016 9:35,0.04,US/Mountain,K04V,38.0972,-106.1689,Saguache,Saguache,CO,81149
W-115,Snow,Light,4/18/2016 9:55,4/18/2016 10:15,0,US/Mountain,K04V,38.0972,-106.1689,Saguache,Saguache,CO,81149
W-116,Snow,Light,4/18/2016 16:55,4/18/2016 17:35,0,US/Mountain,K04V,38.0972,-106.1689,Saguache,Saguache,CO,81149
W-117,Snow,Light,4/19/2016 1:55,4/19/2016 2:15,0,US/Mountain,K04V,38.0972,-106.1689,Saguache,Saguache,CO,81149
W-118,Rain,Light,4/19/2016 2:15,4/19/2016 2:35,0,US/Mountain,K04V,38.0972,-106.1689,Saguache,Saguache,CO,81149
W-119,Snow,Light,4/19/2016 2:35,4/19/2016 6:15,0.09,US/Mountain,K04V,38.0972,-106.1689,Saguache,Saguache,CO,81149
W-120,Snow,Light,4/19/2016 8:15,4/19/2016 8:55,0,US/Mountain,K04V,38.0972,-106.1689,Saguache,Saguache,CO,81149
W-121,Snow,Light,4/19/2016 14:15,4/19/2016 14:55,0,US/Mountain,K04V,38.0972,-106.1689,Saguache,Saguache,CO,81149
W-122,Snow,Light,4/20/2016 12:55,4/20/2016 14:35,0,US/Mountain,K04V,38.0972,-106.1689,Saguache,Saguache,CO,81149
W-123,Rain,Light,4/20/2016 15:15,4/20/2016 16:55,0,US/Mountain,K04V,38.0972,-106.1689,Saguache,Saguache,CO,81149
W-124,Rain,Light,4/20/2016 19:55,4/20/2016 20:15,0,US/Mountain,K04V,38.0972,-106.1689,Saguache,Saguache,CO,81149
W-125,Rain,Light,4/24/2016 2:35,4/24/2016 3:15,0.01,US/Mountain,K04V,38.0972,-106.1689,Saguache,Saguache,CO,81149
W-126,Rain,Light,4/26/2016 1:55,4/26/2016 2:55,0,US/Mountain,K04V,38.0972,-106.1689,Saguache,Saguache,CO,81149
W-127,Snow,Light,4/26/2016 21:55,4/26/2016 22:35,0,US/Mountain,K04V,38.0972,-106.1689,Saguache,Saguache,CO,81149
W-128,Snow,Light,4/26/2016 23:55,4/27/2016 1:15,0,US/Mountain,K04V,38.0972,-106.1689,Saguache,Saguache,CO,81149
W-129,Snow,Light,4/27/2016 2:15,4/27/2016 2:55,0,US/Mountain,K04V,38.0972,-106.1689,Saguache,Saguache,CO,81149
W-130,Rain,Light,4/28/2016 7:35,4/28/2016 7:55,0,US/Mountain,K04V,38.0972,-106.1689,Saguache,Saguache,CO,81149
W-131,Rain,Light,4/28/2016 12:15,4/28/2016 14:35,0,US/Mountain,K04V,38.0972,-106.1689,Saguache,Saguache,CO,81149
W-132,Rain,Light,4/28/2016 19:35,4/28/2016 19:55,0,US/Mountain,K04V,38.0972,-106.1689,Saguache,Saguache,CO,81149
W-133,Rain,Light,4/28/2016 21:35,4/28/2016 21:55,0,US/Mountain,K04V,38.0972,-106.1689,Saguache,Saguache,CO,81149
W-134,Rain,Light,4/29/2016 2:15,4/29/2016 3:15,0.02,US/Mountain,K04V,38.0972,-106.1689,Saguache,Saguache,CO,81149
W-135,Snow,Heavy,4/29/2016 3:15,4/29/2016 3:55,0.19,US/Mountain,K04V,38.0972,-106.1689,Saguache,Saguache,CO,81149
W-136,Rain,Moderate,4/29/2016 3:55,4/29/2016 4:15,0.12,US/Mountain,K04V,38.0972,-106.1689,Saguache,Saguache,CO,81149
W-137,Rain,Light,4/29/2016 4:35,4/29/2016 6:15,0.03,US/Mountain,K04V,38.0972,-106.1689,Saguache,Saguache,CO,81149
W-138,Snow,Light,4/29/2016 6:15,4/29/2016 6:35,0.02,US/Mountain,K04V,38.0972,-106.1689,Saguache,Saguache,CO,81149
W-139,Snow,Moderate,4/29/2016 6:35,4/29/2016 6:55,0.04,US/Mountain,K04V,38.0972,-106.1689,Saguache,Saguache,CO,81149
W-140,Rain,Light,4/29/2016 6:55,4/29/2016 7:35,0.04,US/Mountain,K04V,38.0972,-106.1689,Saguache,Saguache,CO,81149
W-141,Rain,Light,4/29/2016 8:15,4/29/2016 8:55,0,US/Mountain,K04V,38.0972,-106.1689,Saguache,Saguache,CO,81149
W-142,Rain,Light,4/29/2016 9:15,4/29/2016 9:35,0,US/Mountain,K04V,38.0972,-106.1689,Saguache,Saguache,CO,81149
W-143,Rain,Light,4/29/2016 10:15,4/29/2016 10:55,0,US/Mountain,K04V,38.0972,-106.1689,Saguache,Saguache,CO,81149
W-144,Rain,Light,4/29/2016 11:35,4/29/2016 12:15,0,US/Mountain,K04V,38.0972,-106.1689,Saguache,Saguache,CO,81149
W-145,Snow,Light,4/29/2016 12:15,4/29/2016 12:35,0,US/Mountain,K04V,38.0972,-106.1689,Saguache,Saguache,CO,81149
W-146,Rain,Light,4/29/2016 12:35,4/29/2016 12:55,0,US/Mountain,K04V,38.0972,-106.1689,Saguache,Saguache,CO,81149
W-147,Snow,Light,4/29/2016 12:55,4/29/2016 16:15,0.07,US/Mountain,K04V,38.0972,-106.1689,Saguache,Saguache,CO,81149
W-148,Snow,Moderate,4/29/2016 16:15,4/29/2016 16:55,0.08,US/Mountain,K04V,38.0972,-106.1689,Saguache,Saguache,CO,81149
W-149,Snow,Heavy,4/29/2016 16:55,4/29/2016 17:15,0.08,US/Mountain,K04V,38.0972,-106.1689,Saguache,Saguache,CO,81149
W-150,Snow,Light,4/29/2016 17:15,4/29/2016 17:35,0.02,US/Mountain,K04V,38.0972,-106.1689,Saguache,Saguache,CO,81149
W-151,Snow,Moderate,4/29/2016 17:35,4/29/2016 18:15,0.09,US/Mountain,K04V,38.0972,-106.1689,Saguache,Saguache,CO,81149
W-152,Snow,Light,4/29/2016 18:15,4/29/2016 20:35,0.05,US/Mountain,K04V,38.0972,-106.1689,Saguache,Saguache,CO,81149
W-153,Rain,Light,4/29/2016 20:55,4/29/2016 21:15,0.01,US/Mountain,K04V,38.0972,-106.1689,Saguache,Saguache,CO,81149
W-154,Rain,Light,4/29/2016 21:35,4/29/2016 22:15,0,US/Mountain,K04V,38.0972,-106.1689,Saguache,Saguache,CO,81149
W-155,Snow,Light,4/29/2016 22:15,4/29/2016 23:55,0.01,US/Mountain,K04V,38.0972,-106.1689,Saguache,Saguache,CO,81149
W-156,Rain,Light,4/29/2016 23:55,4/30/2016 0:15,0.01,US/Mountain,K04V,38.0972,-106.1689,Saguache,Saguache,CO,81149
W-157,Snow,Light,4/30/2016 0:15,4/30/2016 1:35,0.03,US/Mountain,K04V,38.0972,-106.1689,Saguache,Saguache,CO,81149
W-158,Snow,Moderate,4/30/2016 1:35,4/30/2016 2:15,0.08,US/Mountain,K04V,38.0972,-106.1689,Saguache,Saguache,CO,81149
W-159,Snow,Light,4/30/2016 2:15,4/30/2016 3:55,0.03,US/Mountain,K04V,38.0972,-106.1689,Saguache,Saguache,CO,81149
W-160,Snow,Light,4/30/2016 4:15,4/30/2016 4:35,0,US/Mountain,K04V,38.0972,-106.1689,Saguache,Saguache,CO,81149
W-161,Snow,Light,4/30/2016 5:55,4/30/2016 6:15,0,US/Mountain,K04V,38.0972,-106.1689,Saguache,Saguache,CO,81149
W-162,Snow,Light,4/30/2016 6:35,4/30/2016 6:55,0,US/Mountain,K04V,38.0972,-106.1689,Saguache,Saguache,CO,81149
W-163,Snow,Light,4/30/2016 7:35,4/30/2016 7:55,0,US/Mountain,K04V,38.0972,-106.1689,Saguache,Saguache,CO,81149
W-164,Snow,Light,4/30/2016 8:55,4/30/2016 9:15,0,US/Mountain,K04V,38.0972,-106.1689,Saguache,Saguache,CO,81149
W-165,Fog,Severe,4/30/2016 11:35,4/30/2016 11:55,0,US/Mountain,K04V,38.0972,-106.1689,Saguache,Saguache,CO,81149
W-166,Rain,Light,4/30/2016 15:15,4/30/2016 15:55,0,US/Mountain,K04V,38.0972,-106.1689,Saguache,Saguache,CO,81149
W-167,Snow,Light,4/30/2016 15:55,4/30/2016 16:15,0,US/Mountain,K04V,38.0972,-106.1689,Saguache,Saguache,CO,81149
W-168,Rain,Light,4/30/2016 21:55,4/30/2016 22:15,0,US/Mountain,K04V,38.0972,-106.1689,Saguache,Saguache,CO,81149
W-169,Snow,Light,5/1/2016 15:35,5/1/2016 16:35,0,US/Mountain,K04V,38.0972,-106.1689,Saguache,Saguache,CO,81149
W-170,Rain,Light,5/2/2016 3:55,5/2/2016 5:15,0,US/Mountain,K04V,38.0972,-106.1689,Saguache,Saguache,CO,81149
W-171,Snow,Light,5/2/2016 10:15,5/2/2016 11:35,0,US/Mountain,K04V,38.0972,-106.1689,Saguache,Saguache,CO,81149
W-172,Rain,Light,5/6/2016 12:35,5/6/2016 12:55,0,US/Mountain,K04V,38.0972,-106.1689,Saguache,Saguache,CO,81149
W-173,Rain,Light,5/6/2016 15:35,5/6/2016 15:55,0,US/Mountain,K04V,38.0972,-106.1689,Saguache,Saguache,CO,81149
W-174,Rain,Light,5/7/2016 23:35,5/7/2016 23:55,0,US/Mountain,K04V,38.0972,-106.1689,Saguache,Saguache,CO,81149
W-175,Rain,Light,5/8/2016 19:55,5/8/2016 20:15,0,US/Mountain,K04V,38.0972,-106.1689,Saguache,Saguache,CO,81149
W-176,Rain,Light,5/8/2016 20:55,5/8/2016 21:35,0,US/Mountain,K04V,38.0972,-106.1689,Saguache,Saguache,CO,81149
W-177,Rain,Light,5/8/2016 23:55,5/9/2016 1:15,0,US/Mountain,K04V,38.0972,-106.1689,Saguache,Saguache,CO,81149
W-178,Rain,Light,5/9/2016 11:15,5/9/2016 12:35,0,US/Mountain,K04V,38.0972,-106.1689,Saguache,Saguache,CO,81149
W-179,Rain,Light,5/9/2016 12:55,5/9/2016 13:15,0,US/Mountain,K04V,38.0972,-106.1689,Saguache,Saguache,CO,81149
W-180,Snow,Light,5/9/2016 13:15,5/9/2016 14:15,0,US/Mountain,K04V,38.0972,-106.1689,Saguache,Saguache,CO,81149
W-181,Rain,Light,5/9/2016 14:15,5/9/2016 15:15,0,US/Mountain,K04V,38.0972,-106.1689,Saguache,Saguache,CO,81149
W-182,Rain,Light,5/9/2016 15:55,5/9/2016 16:15,0,US/Mountain,K04V,38.0972,-106.1689,Saguache,Saguache,CO,81149
W-183,Rain,Light,5/9/2016 16:35,5/9/2016 16:55,0,US/Mountain,K04V,38.0972,-106.1689,Saguache,Saguache,CO,81149
W-184,Rain,Light,5/10/2016 16:15,5/10/2016 16:55,0,US/Mountain,K04V,38.0972,-106.1689,Saguache,Saguache,CO,81149
W-185,Rain,Light,5/10/2016 19:55,5/10/2016 20:15,0,US/Mountain,K04V,38.0972,-106.1689,Saguache,Saguache,CO,81149
W-186,Rain,Light,5/10/2016 20:55,5/10/2016 21:15,0,US/Mountain,K04V,38.0972,-106.1689,Saguache,Saguache,CO,81149
W-187,Rain,Light,5/10/2016 22:15,5/10/2016 22:35,0,US/Mountain,K04V,38.0972,-106.1689,Saguache,Saguache,CO,81149
W-188,Rain,Light,5/10/2016 22:55,5/10/2016 23:15,0,US/Mountain,K04V,38.0972,-106.1689,Saguache,Saguache,CO,81149
W-189,Rain,Light,5/11/2016 0:55,5/11/2016 1:15,0,US/Mountain,K04V,38.0972,-106.1689,Saguache,Saguache,CO,81149
W-190,Rain,Light,5/11/2016 2:55,5/11/2016 3:35,0,US/Mountain,K04V,38.0972,-106.1689,Saguache,Saguache,CO,81149
W-191,Rain,Light,5/11/2016 5:35,5/11/2016 5:55,0,US/Mountain,K04V,38.0972,-106.1689,Saguache,Saguache,CO,81149
W-192,Rain,Light,5/11/2016 6:55,5/11/2016 7:15,0,US/Mountain,K04V,38.0972,-106.1689,Saguache,Saguache,CO,81149
W-193,Rain,Light,5/15/2016 11:35,5/15/2016 13:35,0.04,US/Mountain,K04V,38.0972,-106.1689,Saguache,Saguache,CO,81149
W-194,Rain,Light,5/15/2016 15:35,5/15/2016 15:55,0,US/Mountain,K04V,38.0972,-106.1689,Saguache,Saguache,CO,81149
W-195,Rain,Light,5/15/2016 17:55,5/15/2016 18:15,0,US/Mountain,K04V,38.0972,-106.1689,Saguache,Saguache,CO,81149
W-196,Rain,Light,5/16/2016 8:56,5/16/2016 9:16,0,US/Mountain,K04V,38.0972,-106.1689,Saguache,Saguache,CO,81149
W-197,Rain,Light,5/16/2016 14:36,5/16/2016 14:56,0,US/Mountain,K04V,38.0972,-106.1689,Saguache,Saguache,CO,81149
W-198,Rain,Light,5/16/2016 15:16,5/16/2016 16:35,0.02,US/Mountain,K04V,38.0972,-106.1689,Saguache,Saguache,CO,81149
W-199,Rain,Light,5/16/2016 18:15,5/16/2016 18:55,0,US/Mountain,K04V,38.0972,-106.1689,Saguache,Saguache,CO,81149
W-200,Rain,Light,5/16/2016 19:15,5/16/2016 23:35,0.05,US/Mountain,K04V,38.0972,-106.1689,Saguache,Saguache,CO,81149
W-201,Rain,Light,5/16/2016 23:56,5/17/2016 0:36,0,US/Mountain,K04V,38.0972,-106.1689,Saguache,Saguache,CO,81149
W-202,Rain,Light,5/17/2016 1:56,5/17/2016 2:16,0,US/Mountain,K04V,38.0972,-106.1689,Saguache,Saguache,CO,81149
W-203,Rain,Light,5/17/2016 18:56,5/17/2016 19:16,0,US/Mountain,K04V,38.0972,-106.1689,Saguache,Saguache,CO,81149
W-204,Rain,Light,5/17/2016 19:36,5/17/2016 20:16,0,US/Mountain,K04V,38.0972,-106.1689,Saguache,Saguache,CO,81149
W-205,Rain,Light,5/17/2016 20:56,5/17/2016 21:16,0,US/Mountain,K04V,38.0972,-106.1689,Saguache,Saguache,CO,81149
W-206,Rain,Light,5/17/2016 21:36,5/17/2016 22:36,0,US/Mountain,K04V,38.0972,-106.1689,Saguache,Saguache,CO,81149
W-207,Rain,Light,5/17/2016 22:55,5/18/2016 1:16,0.01,US/Mountain,K04V,38.0972,-106.1689,Saguache,Saguache,CO,81149
W-208,Rain,Light,5/18/2016 1:36,5/18/2016 2:36,0.01,US/Mountain,K04V,38.0972,-106.1689,Saguache,Saguache,CO,81149
W-209,Rain,Light,5/18/2016 16:35,5/18/2016 18:35,0,US/Mountain,K04V,38.0972,-106.1689,Saguache,Saguache,CO,81149
W-210,Rain,Light,5/18/2016 20:36,5/18/2016 20:56,0,US/Mountain,K04V,38.0972,-106.1689,Saguache,Saguache,CO,81149
W-211,Rain,Light,5/18/2016 21:16,5/18/2016 22:35,0,US/Mountain,K04V,38.0972,-106.1689,Saguache,Saguache,CO,81149
W-212,Rain,Light,5/18/2016 23:16,5/19/2016 3:16,0,US/Mountain,K04V,38.0972,-106.1689,Saguache,Saguache,CO,81149
W-213,Rain,Light,5/19/2016 3:56,5/19/2016 4:16,0,US/Mountain,K04V,38.0972,-106.1689,Saguache,Saguache,CO,81149
W-214,Rain,Light,5/19/2016 4:36,5/19/2016 6:36,0,US/Mountain,K04V,38.0972,-106.1689,Saguache,Saguache,CO,81149
W-215,Rain,Light,5/19/2016 20:35,5/19/2016 20:55,0,US/Mountain,K04V,38.0972,-106.1689,Saguache,Saguache,CO,81149
W-216,Rain,Light,5/19/2016 21:15,5/19/2016 22:15,0,US/Mountain,K04V,38.0972,-106.1689,Saguache,Saguache,CO,81149
W-217,Rain,Light,5/19/2016 22:35,5/19/2016 23:56,0.01,US/Mountain,K04V,38.0972,-106.1689,Saguache,Saguache,CO,81149
W-218,Rain,Light,5/20/2016 0:16,5/20/2016 0:36,0,US/Mountain,K04V,38.0972,-106.1689,Saguache,Saguache,CO,81149
W-219,Rain,Light,5/26/2016 19:15,5/26/2016 19:36,0,US/Mountain,K04V,38.0972,-106.1689,Saguache,Saguache,CO,81149
W-220,Rain,Light,5/26/2016 20:56,5/26/2016 21:16,0,US/Mountain,K04V,38.0972,-106.1689,Saguache,Saguache,CO,81149
W-221,Rain,Light,5/26/2016 21:36,5/26/2016 21:56,0,US/Mountain,K04V,38.0972,-106.1689,Saguache,Saguache,CO,81149
W-222,Rain,Light,5/26/2016 23:36,5/26/2016 23:56,0,US/Mountain,K04V,38.0972,-106.1689,Saguache,Saguache,CO,81149
W-223,Rain,Light,5/27/2016 0:36,5/27/2016 0:56,0,US/Mountain,K04V,38.0972,-106.1689,Saguache,Saguache,CO,81149
W-224,Rain,Light,5/27/2016 4:36,5/27/2016 6:36,0.01,US/Mountain,K04V,38.0972,-106.1689,Saguache,Saguache,CO,81149
W-225,Rain,Light,5/27/2016 7:56,5/27/2016 9:16,0,US/Mountain,K04V,38.0972,-106.1689,Saguache,Saguache,CO,81149
W-226,Rain,Light,5/27/2016 21:56,5/27/2016 22:36,0,US/Mountain,K04V,38.0972,-106.1689,Saguache,Saguache,CO,81149
W-227,Rain,Light,5/27/2016 23:36,5/27/2016 23:56,0,US/Mountain,K04V,38.0972,-106.1689,Saguache,Saguache,CO,81149
W-228,Rain,Light,5/28/2016 0:16,5/28/2016 0:56,0,US/Mountain,K04V,38.0972,-106.1689,Saguache,Saguache,CO,81149
W-229,Rain,Light,5/28/2016 1:56,5/28/2016 2:16,0,US/Mountain,K04V,38.0972,-106.1689,Saguache,Saguache,CO,81149
W-230,Rain,Light,5/28/2016 3:16,5/28/2016 3:36,0,US/Mountain,K04V,38.0972,-106.1689,Saguache,Saguache,CO,81149
W-231,Rain,Light,5/28/2016 22:16,5/28/2016 22:36,0,US/Mountain,K04V,38.0972,-106.1689,Saguache,Saguache,CO,81149
W-232,Rain,Light,5/28/2016 23:56,5/29/2016 0:36,0,US/Mountain,K04V,38.0972,-106.1689,Saguache,Saguache,CO,81149
W-233,Rain,Light,5/29/2016 18:16,5/29/2016 18:36,0,US/Mountain,K04V,38.0972,-106.1689,Saguache,Saguache,CO,81149
W-234,Rain,Light,5/30/2016 20:16,5/30/2016 21:16,0,US/Mountain,K04V,38.0972,-106.1689,Saguache,Saguache,CO,81149
W-235,Rain,Light,5/30/2016 21:36,5/30/2016 21:56,0,US/Mountain,K04V,38.0972,-106.1689,Saguache,Saguache,CO,81149
W-236,Rain,Light,5/30/2016 22:56,5/30/2016 23:36,0,US/Mountain,K04V,38.0972,-106.1689,Saguache,Saguache,CO,81149
W-237,Rain,Light,5/31/2016 21:36,5/31/2016 21:56,0,US/Mountain,K04V,38.0972,-106.1689,Saguache,Saguache,CO,81149
W-238,Rain,Light,6/1/2016 1:56,6/1/2016 2:16,0,US/Mountain,K04V,38.0972,-106.1689,Saguache,Saguache,CO,81149
W-239,Rain,Light,6/1/2016 3:36,6/1/2016 3:56,0,US/Mountain,K04V,38.0972,-106.1689,Saguache,Saguache,CO,81149
W-240,Rain,Light,6/1/2016 22:16,6/1/2016 23:56,0,US/Mountain,K04V,38.0972,-106.1689,Saguache,Saguache,CO,81149
W-241,Rain,Light,6/2/2016 0:16,6/2/2016 0:36,0,US/Mountain,K04V,38.0972,-106.1689,Saguache,Saguache,CO,81149
W-242,Rain,Light,6/4/2016 22:56,6/4/2016 23:16,0,US/Mountain,K04V,38.0972,-106.1689,Saguache,Saguache,CO,81149
W-243,Rain,Light,6/5/2016 1:16,6/5/2016 1:36,0,US/Mountain,K04V,38.0972,-106.1689,Saguache,Saguache,CO,81149
W-244,Rain,Light,6/6/2016 1:36,6/6/2016 1:56,0,US/Mountain,K04V,38.0972,-106.1689,Saguache,Saguache,CO,81149
W-245,Rain,Light,6/6/2016 3:56,6/6/2016 4:16,0,US/Mountain,K04V,38.0972,-106.1689,Saguache,Saguache,CO,81149
W-246,Rain,Light,6/6/2016 4:36,6/6/2016 4:56,0,US/Mountain,K04V,38.0972,-106.1689,Saguache,Saguache,CO,81149
W-247,Rain,Light,6/6/2016 5:36,6/6/2016 5:56,0,US/Mountain,K04V,38.0972,-106.1689,Saguache,Saguache,CO,81149
W-248,Rain,Light,6/6/2016 21:56,6/6/2016 23:16,0.01,US/Mountain,K04V,38.0972,-106.1689,Saguache,Saguache,CO,81149
W-249,Rain,Light,6/7/2016 0:56,6/7/2016 1:36,0,US/Mountain,K04V,38.0972,-106.1689,Saguache,Saguache,CO,81149
W-250,Rain,Light,6/7/2016 21:36,6/7/2016 23:36,0.04,US/Mountain,K04V,38.0972,-106.1689,Saguache,Saguache,CO,81149
W-251,Rain,Light,6/7/2016 23:56,6/8/2016 0:36,0,US/Mountain,K04V,38.0972,-106.1689,Saguache,Saguache,CO,81149
W-252,Rain,Light,6/8/2016 19:16,6/8/2016 19:56,0,US/Mountain,K04V,38.0972,-106.1689,Saguache,Saguache,CO,81149
W-253,Rain,Light,6/8/2016 20:16,6/8/2016 20:36,0,US/Mountain,K04V,38.0972,-106.1689,Saguache,Saguache,CO,81149
W-254,Rain,Light,6/8/2016 21:56,6/8/2016 22:36,0,US/Mountain,K04V,38.0972,-106.1689,Saguache,Saguache,CO,81149
W-255,Rain,Light,6/8/2016 23:16,6/8/2016 23:36,0,US/Mountain,K04V,38.0972,-106.1689,Saguache,Saguache,CO,81149
W-256,Rain,Light,6/8/2016 23:56,6/9/2016 0:16,0,US/Mountain,K04V,38.0972,-106.1689,Saguache,Saguache,CO,81149
W-257,Rain,Light,6/9/2016 0:36,6/9/2016 1:16,0,US/Mountain,K04V,38.0972,-106.1689,Saguache,Saguache,CO,81149
W-258,Rain,Light,6/10/2016 1:16,6/10/2016 1:36,0,US/Mountain,K04V,38.0972,-106.1689,Saguache,Saguache,CO,81149
W-259,Rain,Light,6/12/2016 2:15,6/12/2016 2:35,0,US/Mountain,K04V,38.0972,-106.1689,Saguache,Saguache,CO,81149
W-260,Rain,Light,6/12/2016 19:55,6/12/2016 20:15,0,US/Mountain,K04V,38.0972,-106.1689,Saguache,Saguache,CO,81149
W-261,Rain,Light,6/12/2016 21:35,6/12/2016 21:55,0,US/Mountain,K04V,38.0972,-106.1689,Saguache,Saguache,CO,81149
W-262,Rain,Light,6/12/2016 22:35,6/12/2016 22:55,0.07,US/Mountain,K04V,38.0972,-106.1689,Saguache,Saguache,CO,81149
W-263,Rain,Moderate,6/12/2016 22:55,6/12/2016 23:15,0.13,US/Mountain,K04V,38.0972,-106.1689,Saguache,Saguache,CO,81149
W-264,Rain,Light,6/13/2016 0:15,6/13/2016 0:35,0.01,US/Mountain,K04V,38.0972,-106.1689,Saguache,Saguache,CO,81149
W-265,Rain,Moderate,6/13/2016 0:35,6/13/2016 0:55,0.11,US/Mountain,K04V,38.0972,-106.1689,Saguache,Saguache,CO,81149
W-266,Rain,Light,6/13/2016 15:15,6/13/2016 15:35,0,US/Mountain,K04V,38.0972,-106.1689,Saguache,Saguache,CO,81149
W-267,Rain,Light,6/13/2016 15:55,6/13/2016 16:55,0.06,US/Mountain,K04V,38.0972,-106.1689,Saguache,Saguache,CO,81149
W-268,Rain,Light,6/13/2016 18:35,6/13/2016 18:55,0,US/Mountain,K04V,38.0972,-106.1689,Saguache,Saguache,CO,81149
W-269,Rain,Light,6/14/2016 1:15,6/14/2016 1:35,0,US/Mountain,K04V,38.0972,-106.1689,Saguache,Saguache,CO,81149
W-270,Rain,Light,6/14/2016 1:55,6/14/2016 2:15,0,US/Mountain,K04V,38.0972,-106.1689,Saguache,Saguache,CO,81149
W-271,Rain,Light,6/14/2016 2:35,6/14/2016 3:15,0.01,US/Mountain,K04V,38.0972,-106.1689,Saguache,Saguache,CO,81149
W-272,Rain,Light,6/21/2016 3:35,6/21/2016 3:55,0,US/Mountain,K04V,38.0972,-106.1689,Saguache,Saguache,CO,81149
W-273,Rain,Light,6/21/2016 20:35,6/21/2016 20:55,0,US/Mountain,K04V,38.0972,-106.1689,Saguache,Saguache,CO,81149
W-274,Rain,Light,6/22/2016 20:35,6/22/2016 21:35,0,US/Mountain,K04V,38.0972,-106.1689,Saguache,Saguache,CO,81149
W-275,Rain,Light,6/23/2016 20:35,6/23/2016 21:15,0,US/Mountain,K04V,38.0972,-106.1689,Saguache,Saguache,CO,81149
W-276,Rain,Light,6/23/2016 22:15,6/23/2016 22:55,0,US/Mountain,K04V,38.0972,-106.1689,Saguache,Saguache,CO,81149
W-277,Rain,Light,6/23/2016 23:35,6/23/2016 23:55,0,US/Mountain,K04V,38.0972,-106.1689,Saguache,Saguache,CO,81149
W-278,Rain,Light,6/24/2016 19:55,6/24/2016 22:35,0.01,US/Mountain,K04V,38.0972,-106.1689,Saguache,Saguache,CO,81149
W-279,Rain,Light,6/25/2016 0:55,6/25/2016 1:15,0,US/Mountain,K04V,38.0972,-106.1689,Saguache,Saguache,CO,81149
W-280,Rain,Light,6/25/2016 19:35,6/25/2016 19:55,0,US/Mountain,K04V,38.0972,-106.1689,Saguache,Saguache,CO,81149
W-281,Rain,Light,6/28/2016 5:15,6/28/2016 5:55,0,US/Mountain,K04V,38.0972,-106.1689,Saguache,Saguache,CO,81149
W-282,Rain,Light,6/30/2016 20:15,6/30/2016 20:35,0,US/Mountain,K04V,38.0972,-106.1689,Saguache,Saguache,CO,81149
W-283,Rain,Light,6/30/2016 22:15,6/30/2016 22:35,0.02,US/Mountain,K04V,38.0972,-106.1689,Saguache,Saguache,CO,81149
W-284,Rain,Light,6/30/2016 23:35,6/30/2016 23:55,0,US/Mountain,K04V,38.0972,-106.1689,Saguache,Saguache,CO,81149
W-285,Rain,Light,7/1/2016 0:15,7/1/2016 1:15,0.11,US/Mountain,K04V,38.0972,-106.1689,Saguache,Saguache,CO,81149
W-286,Rain,Light,7/1/2016 1:35,7/1/2016 2:15,0,US/Mountain,K04V,38.0972,-106.1689,Saguache,Saguache,CO,81149
W-287,Rain,Light,7/1/2016 2:35,7/1/2016 2:55,0,US/Mountain,K04V,38.0972,-106.1689,Saguache,Saguache,CO,81149
W-288,Rain,Light,7/1/2016 5:35,7/1/2016 5:55,0,US/Mountain,K04V,38.0972,-106.1689,Saguache,Saguache,CO,81149
W-289,Rain,Light,7/1/2016 6:35,7/1/2016 7:56,0.01,US/Mountain,K04V,38.0972,-106.1689,Saguache,Saguache,CO,81149
W-290,Rain,Light,7/1/2016 18:36,7/1/2016 18:56,0,US/Mountain,K04V,38.0972,-106.1689,Saguache,Saguache,CO,81149
W-291,Rain,Light,7/1/2016 19:56,7/1/2016 20:16,0,US/Mountain,K04V,38.0972,-106.1689,Saguache,Saguache,CO,81149
W-292,Rain,Light,7/1/2016 21:16,7/2/2016 5:56,0.28,US/Mountain,K04V,38.0972,-106.1689,Saguache,Saguache,CO,81149
W-293,Rain,Light,7/2/2016 6:16,7/2/2016 6:36,0,US/Mountain,K04V,38.0972,-106.1689,Saguache,Saguache,CO,81149
W-294,Rain,Light,7/2/2016 20:36,7/2/2016 21:16,0,US/Mountain,K04V,38.0972,-106.1689,Saguache,Saguache,CO,81149
W-295,Rain,Light,7/2/2016 21:36,7/3/2016 0:16,0.01,US/Mountain,K04V,38.0972,-106.1689,Saguache,Saguache,CO,81149
W-296,Rain,Light,7/3/2016 1:16,7/3/2016 1:36,0,US/Mountain,K04V,38.0972,-106.1689,Saguache,Saguache,CO,81149
W-297,Rain,Light,7/3/2016 2:36,7/3/2016 3:56,0.05,US/Mountain,K04V,38.0972,-106.1689,Saguache,Saguache,CO,81149
W-298,Rain,Light,7/3/2016 20:36,7/3/2016 20:56,0,US/Mountain,K04V,38.0972,-106.1689,Saguache,Saguache,CO,81149
W-299,Rain,Light,7/3/2016 21:16,7/3/2016 22:36,0,US/Mountain,K04V,38.0972,-106.1689,Saguache,Saguache,CO,81149
W-300,Rain,Light,7/3/2016 23:36,7/4/2016 0:16,0.04,US/Mountain,K04V,38.0972,-106.1689,Saguache,Saguache,CO,81149
W-301,Rain,Light,7/4/2016 21:16,7/4/2016 21:56,0,US/Mountain,K04V,38.0972,-106.1689,Saguache,Saguache,CO,81149
W-302,Rain,Light,7/4/2016 23:36,7/5/2016 3:16,0,US/Mountain,K04V,38.0972,-106.1689,Saguache,Saguache,CO,81149
W-303,Rain,Light,7/6/2016 1:56,7/6/2016 2:36,0.03,US/Mountain,K04V,38.0972,-106.1689,Saguache,Saguache,CO,81149
W-304,Fog,Moderate,7/7/2016 18:16,7/7/2016 18:36,0,US/Mountain,K04V,38.0972,-106.1689,Saguache,Saguache,CO,81149
W-305,Rain,Light,7/8/2016 0:36,7/8/2016 0:56,0,US/Mountain,K04V,38.0972,-106.1689,Saguache,Saguache,CO,81149
W-306,Rain,Light,7/8/2016 1:36,7/8/2016 1:56,0,US/Mountain,K04V,38.0972,-106.1689,Saguache,Saguache,CO,81149
W-307,Rain,Light,7/8/2016 2:36,7/8/2016 2:56,0,US/Mountain,K04V,38.0972,-106.1689,Saguache,Saguache,CO,81149
W-308,Rain,Light,7/8/2016 3:56,7/8/2016 4:16,0,US/Mountain,K04V,38.0972,-106.1689,Saguache,Saguache,CO,81149
W-309,Rain,Light,7/18/2016 21:56,7/18/2016 22:56,0,US/Mountain,K04V,38.0972,-106.1689,Saguache,Saguache,CO,81149
W-310,Rain,Light,7/18/2016 23:56,7/19/2016 1:16,0,US/Mountain,K04V,38.0972,-106.1689,Saguache,Saguache,CO,81149
W-311,Rain,Light,7/19/2016 1:56,7/19/2016 2:36,0,US/Mountain,K04V,38.0972,-106.1689,Saguache,Saguache,CO,81149
W-312,Rain,Light,7/19/2016 2:56,7/19/2016 3:16,0,US/Mountain,K04V,38.0972,-106.1689,Saguache,Saguache,CO,81149
W-313,Rain,Light,7/19/2016 3:56,7/19/2016 4:16,0,US/Mountain,K04V,38.0972,-106.1689,Saguache,Saguache,CO,81149
W-314,Rain,Light,7/19/2016 9:16,7/19/2016 9:36,0,US/Mountain,K04V,38.0972,-106.1689,Saguache,Saguache,CO,81149
W-315,Rain,Light,7/19/2016 11:56,7/19/2016 12:16,0,US/Mountain,K04V,38.0972,-106.1689,Saguache,Saguache,CO,81149
W-316,Rain,Light,7/19/2016 12:36,7/19/2016 12:56,0,US/Mountain,K04V,38.0972,-106.1689,Saguache,Saguache,CO,81149
W-317,Rain,Light,7/19/2016 19:36,7/19/2016 19:56,0,US/Mountain,K04V,38.0972,-106.1689,Saguache,Saguache,CO,81149
W-318,Rain,Light,7/19/2016 20:36,7/19/2016 23:56,0.1,US/Mountain,K04V,38.0972,-106.1689,Saguache,Saguache,CO,81149
W-319,Rain,Light,7/20/2016 4:36,7/20/2016 5:16,0,US/Mountain,K04V,38.0972,-106.1689,Saguache,Saguache,CO,81149
W-320,Rain,Light,7/20/2016 7:36,7/20/2016 8:36,0,US/Mountain,K04V,38.0972,-106.1689,Saguache,Saguache,CO,81149
W-321,Rain,Light,7/20/2016 20:16,7/21/2016 0:36,0.14,US/Mountain,K04V,38.0972,-106.1689,Saguache,Saguache,CO,81149
W-322,Rain,Light,7/21/2016 1:16,7/21/2016 2:36,0,US/Mountain,K04V,38.0972,-106.1689,Saguache,Saguache,CO,81149
W-323,Rain,Light,7/21/2016 2:56,7/21/2016 3:56,0,US/Mountain,K04V,38.0972,-106.1689,Saguache,Saguache,CO,81149
W-324,Rain,Light,7/21/2016 20:36,7/21/2016 22:16,0,US/Mountain,K04V,38.0972,-106.1689,Saguache,Saguache,CO,81149
W-325,Rain,Light,7/21/2016 23:56,7/22/2016 0:16,0,US/Mountain,K04V,38.0972,-106.1689,Saguache,Saguache,CO,81149
W-326,Rain,Light,7/22/2016 0:36,7/22/2016 0:56,0,US/Mountain,K04V,38.0972,-106.1689,Saguache,Saguache,CO,81149
W-327,Rain,Light,7/22/2016 1:16,7/22/2016 1:56,0,US/Mountain,K04V,38.0972,-106.1689,Saguache,Saguache,CO,81149
W-328,Rain,Light,7/22/2016 5:16,7/22/2016 5:36,0,US/Mountain,K04V,38.0972,-106.1689,Saguache,Saguache,CO,81149
W-329,Rain,Light,7/22/2016 5:56,7/22/2016 6:16,0,US/Mountain,K04V,38.0972,-106.1689,Saguache,Saguache,CO,81149
W-330,Rain,Light,7/22/2016 18:56,7/22/2016 19:56,0,US/Mountain,K04V,38.0972,-106.1689,Saguache,Saguache,CO,81149
W-331,Rain,Light,7/22/2016 20:16,7/22/2016 21:36,0,US/Mountain,K04V,38.0972,-106.1689,Saguache,Saguache,CO,81149
W-332,Rain,Light,7/22/2016 21:56,7/22/2016 22:36,0,US/Mountain,K04V,38.0972,-106.1689,Saguache,Saguache,CO,81149
W-333,Rain,Light,7/22/2016 22:56,7/22/2016 23:16,0,US/Mountain,K04V,38.0972,-106.1689,Saguache,Saguache,CO,81149
W-334,Rain,Light,7/24/2016 0:56,7/24/2016 1:16,0,US/Mountain,K04V,38.0972,-106.1689,Saguache,Saguache,CO,81149
W-335,Rain,Light,7/24/2016 20:36,7/24/2016 20:56,0,US/Mountain,K04V,38.0972,-106.1689,Saguache,Saguache,CO,81149
W-336,Rain,Light,7/24/2016 21:36,7/24/2016 21:56,0.05,US/Mountain,K04V,38.0972,-106.1689,Saguache,Saguache,CO,81149
W-337,Rain,Light,7/25/2016 21:16,7/25/2016 21:36,0,US/Mountain,K04V,38.0972,-106.1689,Saguache,Saguache,CO,81149
W-338,Rain,Light,7/26/2016 20:56,7/26/2016 21:36,0,US/Mountain,K04V,38.0972,-106.1689,Saguache,Saguache,CO,81149
W-339,Rain,Light,7/26/2016 23:16,7/26/2016 23:36,0,US/Mountain,K04V,38.0972,-106.1689,Saguache,Saguache,CO,81149
W-340,Rain,Light,7/30/2016 6:16,7/30/2016 6:36,0,US/Mountain,K04V,38.0972,-106.1689,Saguache,Saguache,CO,81149
W-341,Rain,Light,7/30/2016 20:36,7/30/2016 20:56,0,US/Mountain,K04V,38.0972,-106.1689,Saguache,Saguache,CO,81149
W-342,Rain,Light,7/30/2016 21:16,7/30/2016 21:36,0,US/Mountain,K04V,38.0972,-106.1689,Saguache,Saguache,CO,81149
W-343,Rain,Light,7/30/2016 21:56,7/30/2016 22:36,0,US/Mountain,K04V,38.0972,-106.1689,Saguache,Saguache,CO,81149
W-344,Rain,Light,7/31/2016 19:36,7/31/2016 19:56,0,US/Mountain,K04V,38.0972,-106.1689,Saguache,Saguache,CO,81149
W-345,Rain,Light,7/31/2016 20:16,7/31/2016 21:16,0,US/Mountain,K04V,38.0972,-106.1689,Saguache,Saguache,CO,81149
W-346,Rain,Light,7/31/2016 21:36,7/31/2016 21:56,0,US/Mountain,K04V,38.0972,-106.1689,Saguache,Saguache,CO,81149
W-347,Rain,Light,7/31/2016 22:16,7/31/2016 22:36,0,US/Mountain,K04V,38.0972,-106.1689,Saguache,Saguache,CO,81149
W-348,Rain,Light,7/31/2016 22:56,7/31/2016 23:16,0,US/Mountain,K04V,38.0972,-106.1689,Saguache,Saguache,CO,81149
W-349,Rain,Light,8/1/2016 0:16,8/1/2016 0:56,0,US/Mountain,K04V,38.0972,-106.1689,Saguache,Saguache,CO,81149
W-350,Rain,Light,8/1/2016 1:16,8/1/2016 1:36,0,US/Mountain,K04V,38.0972,-106.1689,Saguache,Saguache,CO,81149
W-351,Rain,Light,8/1/2016 1:56,8/1/2016 2:16,0,US/Mountain,K04V,38.0972,-106.1689,Saguache,Saguache,CO,81149
W-352,Rain,Light,8/1/2016 2:36,8/1/2016 2:56,0,US/Mountain,K04V,38.0972,-106.1689,Saguache,Saguache,CO,81149
W-353,Rain,Light,8/1/2016 4:36,8/1/2016 4:56,0,US/Mountain,K04V,38.0972,-106.1689,Saguache,Saguache,CO,81149
W-354,Rain,Light,8/1/2016 5:16,8/1/2016 5:36,0,US/Mountain,K04V,38.0972,-106.1689,Saguache,Saguache,CO,81149
W-355,Rain,Light,8/1/2016 6:16,8/1/2016 6:36,0,US/Mountain,K04V,38.0972,-106.1689,Saguache,Saguache,CO,81149
W-356,Rain,Light,8/1/2016 23:56,8/2/2016 0:16,0,US/Mountain,K04V,38.0972,-106.1689,Saguache,Saguache,CO,81149
W-357,Rain,Light,8/3/2016 0:16,8/3/2016 1:16,0.03,US/Mountain,K04V,38.0972,-106.1689,Saguache,Saguache,CO,81149
W-358,Rain,Light,8/3/2016 2:16,8/3/2016 2:36,0,US/Mountain,K04V,38.0972,-106.1689,Saguache,Saguache,CO,81149
W-359,Rain,Light,8/3/2016 2:56,8/3/2016 3:36,0,US/Mountain,K04V,38.0972,-106.1689,Saguache,Saguache,CO,81149
W-360,Rain,Light,8/3/2016 20:56,8/3/2016 22:16,0,US/Mountain,K04V,38.0972,-106.1689,Saguache,Saguache,CO,81149
W-361,Rain,Light,8/3/2016 22:56,8/3/2016 23:36,0,US/Mountain,K04V,38.0972,-106.1689,Saguache,Saguache,CO,81149
W-362,Rain,Light,8/4/2016 3:36,8/4/2016 4:16,0,US/Mountain,K04V,38.0972,-106.1689,Saguache,Saguache,CO,81149
W-363,Rain,Light,8/4/2016 6:56,8/4/2016 7:16,0,US/Mountain,K04V,38.0972,-106.1689,Saguache,Saguache,CO,81149
W-364,Rain,Light,8/4/2016 18:16,8/4/2016 18:36,0,US/Mountain,K04V,38.0972,-106.1689,Saguache,Saguache,CO,81149
W-365,Rain,Light,8/4/2016 20:36,8/4/2016 21:16,0,US/Mountain,K04V,38.0972,-106.1689,Saguache,Saguache,CO,81149
W-366,Rain,Light,8/5/2016 7:16,8/5/2016 9:56,0.04,US/Mountain,K04V,38.0972,-106.1689,Saguache,Saguache,CO,81149
W-367,Rain,Light,8/5/2016 10:36,8/5/2016 11:36,0,US/Mountain,K04V,38.0972,-106.1689,Saguache,Saguache,CO,81149
W-368,Rain,Light,8/5/2016 18:36,8/5/2016 20:36,0.04,US/Mountain,K04V,38.0972,-106.1689,Saguache,Saguache,CO,81149
W-369,Rain,Light,8/5/2016 21:16,8/5/2016 21:56,0,US/Mountain,K04V,38.0972,-106.1689,Saguache,Saguache,CO,81149
W-370,Rain,Light,8/5/2016 22:56,8/5/2016 23:36,0.01,US/Mountain,K04V,38.0972,-106.1689,Saguache,Saguache,CO,81149
W-371,Rain,Light,8/6/2016 1:16,8/6/2016 1:56,0,US/Mountain,K04V,38.0972,-106.1689,Saguache,Saguache,CO,81149
W-372,Rain,Light,8/6/2016 2:36,8/6/2016 3:56,0.1,US/Mountain,K04V,38.0972,-106.1689,Saguache,Saguache,CO,81149
W-373,Rain,Light,8/6/2016 4:16,8/6/2016 4:56,0,US/Mountain,K04V,38.0972,-106.1689,Saguache,Saguache,CO,81149
W-374,Rain,Light,8/6/2016 5:16,8/6/2016 6:16,0.06,US/Mountain,K04V,38.0972,-106.1689,Saguache,Saguache,CO,81149
W-375,Rain,Light,8/6/2016 7:36,8/6/2016 9:36,0.05,US/Mountain,K04V,38.0972,-106.1689,Saguache,Saguache,CO,81149
W-376,Rain,Light,8/6/2016 23:16,8/6/2016 23:36,0,US/Mountain,K04V,38.0972,-106.1689,Saguache,Saguache,CO,81149
W-377,Rain,Moderate,8/6/2016 23:36,8/6/2016 23:56,0.18,US/Mountain,K04V,38.0972,-106.1689,Saguache,Saguache,CO,81149
W-378,Rain,Light,8/6/2016 23:56,8/7/2016 0:56,0.02,US/Mountain,K04V,38.0972,-106.1689,Saguache,Saguache,CO,81149
W-379,Rain,Light,8/7/2016 5:36,8/7/2016 5:56,0,US/Mountain,K04V,38.0972,-106.1689,Saguache,Saguache,CO,81149
W-380,Rain,Light,8/7/2016 18:36,8/7/2016 18:56,0,US/Mountain,K04V,38.0972,-106.1689,Saguache,Saguache,CO,81149
W-381,Rain,Light,8/8/2016 0:36,8/8/2016 0:56,0,US/Mountain,K04V,38.0972,-106.1689,Saguache,Saguache,CO,81149
W-382,Rain,Light,8/8/2016 1:56,8/8/2016 3:55,0.04,US/Mountain,K04V,38.0972,-106.1689,Saguache,Saguache,CO,81149
W-383,Rain,Light,8/8/2016 4:16,8/8/2016 4:36,0.02,US/Mountain,K04V,38.0972,-106.1689,Saguache,Saguache,CO,81149
W-384,Rain,Light,8/8/2016 6:36,8/8/2016 6:56,0,US/Mountain,K04V,38.0972,-106.1689,Saguache,Saguache,CO,81149
W-385,Rain,Light,8/8/2016 10:56,8/8/2016 11:16,0,US/Mountain,K04V,38.0972,-106.1689,Saguache,Saguache,CO,81149
W-386,Rain,Light,8/8/2016 19:36,8/8/2016 19:56,0,US/Mountain,K04V,38.0972,-106.1689,Saguache,Saguache,CO,81149
W-387,Rain,Light,8/8/2016 20:36,8/8/2016 20:56,0,US/Mountain,K04V,38.0972,-106.1689,Saguache,Saguache,CO,81149
W-388,Rain,Light,8/8/2016 21:16,8/8/2016 22:36,0,US/Mountain,K04V,38.0972,-106.1689,Saguache,Saguache,CO,81149
W-389,Rain,Light,8/8/2016 22:56,8/8/2016 23:16,0,US/Mountain,K04V,38.0972,-106.1689,Saguache,Saguache,CO,81149
W-390,Rain,Light,8/9/2016 23:16,8/9/2016 23:56,0,US/Mountain,K04V,38.0972,-106.1689,Saguache,Saguache,CO,81149
W-391,Rain,Light,8/10/2016 20:56,8/10/2016 21:36,0,US/Mountain,K04V,38.0972,-106.1689,Saguache,Saguache,CO,81149
W-392,Rain,Light,8/10/2016 21:56,8/10/2016 22:56,0.05,US/Mountain,K04V,38.0972,-106.1689,Saguache,Saguache,CO,81149
W-393,Rain,Light,8/10/2016 23:16,8/11/2016 0:16,0,US/Mountain,K04V,38.0972,-106.1689,Saguache,Saguache,CO,81149
W-394,Rain,Light,8/11/2016 1:16,8/11/2016 1:36,0.01,US/Mountain,K04V,38.0972,-106.1689,Saguache,Saguache,CO,81149
W-395,Rain,Light,8/11/2016 3:56,8/11/2016 4:16,0,US/Mountain,K04V,38.0972,-106.1689,Saguache,Saguache,CO,81149
W-396,Rain,Light,8/16/2016 20:16,8/16/2016 20:36,0,US/Mountain,K04V,38.0972,-106.1689,Saguache,Saguache,CO,81149
W-397,Rain,Light,8/16/2016 23:56,8/17/2016 0:16,0,US/Mountain,K04V,38.0972,-106.1689,Saguache,Saguache,CO,81149
W-398,Rain,Light,8/17/2016 21:16,8/17/2016 21:56,0,US/Mountain,K04V,38.0972,-106.1689,Saguache,Saguache,CO,81149
W-399,Rain,Light,8/17/2016 22:36,8/17/2016 23:36,0,US/Mountain,K04V,38.0972,-106.1689,Saguache,Saguache,CO,81149
W-400,Rain,Light,8/18/2016 21:56,8/19/2016 0:16,0,US/Mountain,K04V,38.0972,-106.1689,Saguache,Saguache,CO,81149
W-401,Rain,Light,8/19/2016 23:56,8/20/2016 0:16,0,US/Mountain,K04V,38.0972,-106.1689,Saguache,Saguache,CO,81149
W-402,Rain,Light,8/20/2016 2:16,8/20/2016 2:36,0.01,US/Mountain,K04V,38.0972,-106.1689,Saguache,Saguache,CO,81149
W-403,Rain,Light,8/21/2016 0:56,8/21/2016 1:16,0,US/Mountain,K04V,38.0972,-106.1689,Saguache,Saguache,CO,81149
W-404,Rain,Light,8/21/2016 2:16,8/21/2016 2:36,0,US/Mountain,K04V,38.0972,-106.1689,Saguache,Saguache,CO,81149
W-405,Rain,Light,8/21/2016 23:56,8/22/2016 0:16,0,US/Mountain,K04V,38.0972,-106.1689,Saguache,Saguache,CO,81149
W-406,Rain,Light,8/22/2016 20:36,8/22/2016 20:56,0,US/Mountain,K04V,38.0972,-106.1689,Saguache,Saguache,CO,81149
W-407,Rain,Light,8/22/2016 21:36,8/22/2016 22:16,0,US/Mountain,K04V,38.0972,-106.1689,Saguache,Saguache,CO,81149
W-408,Rain,Light,8/22/2016 22:56,8/22/2016 23:36,0,US/Mountain,K04V,38.0972,-106.1689,Saguache,Saguache,CO,81149
W-409,Rain,Light,8/22/2016 23:56,8/23/2016 0:36,0,US/Mountain,K04V,38.0972,-106.1689,Saguache,Saguache,CO,81149
W-410,Rain,Light,8/23/2016 0:56,8/23/2016 1:36,0,US/Mountain,K04V,38.0972,-106.1689,Saguache,Saguache,CO,81149
W-411,Rain,Light,8/23/2016 18:36,8/23/2016 18:56,0,US/Mountain,K04V,38.0972,-106.1689,Saguache,Saguache,CO,81149
W-412,Rain,Light,8/23/2016 20:36,8/23/2016 20:56,0,US/Mountain,K04V,38.0972,-106.1689,Saguache,Saguache,CO,81149
W-413,Rain,Light,8/23/2016 21:16,8/23/2016 22:36,0,US/Mountain,K04V,38.0972,-106.1689,Saguache,Saguache,CO,81149
W-414,Rain,Light,8/23/2016 22:56,8/23/2016 23:16,0,US/Mountain,K04V,38.0972,-106.1689,Saguache,Saguache,CO,81149
W-415,Rain,Light,8/23/2016 23:36,8/23/2016 23:56,0,US/Mountain,K04V,38.0972,-106.1689,Saguache,Saguache,CO,81149
W-416,Rain,Light,8/24/2016 0:16,8/24/2016 0:36,0,US/Mountain,K04V,38.0972,-106.1689,Saguache,Saguache,CO,81149
W-417,Rain,Light,8/25/2016 0:16,8/25/2016 0:56,0,US/Mountain,K04V,38.0972,-106.1689,Saguache,Saguache,CO,81149
W-418,Rain,Light,8/25/2016 1:16,8/25/2016 2:36,0.06,US/Mountain,K04V,38.0972,-106.1689,Saguache,Saguache,CO,81149
W-419,Rain,Light,8/25/2016 3:36,8/25/2016 4:16,0,US/Mountain,K04V,38.0972,-106.1689,Saguache,Saguache,CO,81149
W-420,Rain,Light,8/25/2016 19:36,8/25/2016 19:56,0,US/Mountain,K04V,38.0972,-106.1689,Saguache,Saguache,CO,81149
W-421,Rain,Light,8/25/2016 20:36,8/25/2016 20:56,0,US/Mountain,K04V,38.0972,-106.1689,Saguache,Saguache,CO,81149
W-422,Rain,Light,8/25/2016 22:16,8/25/2016 22:56,0,US/Mountain,K04V,38.0972,-106.1689,Saguache,Saguache,CO,81149
W-423,Rain,Light,8/26/2016 2:56,8/26/2016 3:16,0,US/Mountain,K04V,38.0972,-106.1689,Saguache,Saguache,CO,81149
W-424,Rain,Light,8/26/2016 20:16,8/26/2016 20:36,0,US/Mountain,K04V,38.0972,-106.1689,Saguache,Saguache,CO,81149
W-425,Rain,Light,8/26/2016 22:16,8/26/2016 22:36,0,US/Mountain,K04V,38.0972,-106.1689,Saguache,Saguache,CO,81149
W-426,Rain,Light,8/27/2016 4:16,8/27/2016 4:36,0,US/Mountain,K04V,38.0972,-106.1689,Saguache,Saguache,CO,81149
W-427,Rain,Light,8/28/2016 21:16,8/28/2016 22:36,0,US/Mountain,K04V,38.0972,-106.1689,Saguache,Saguache,CO,81149
W-428,Rain,Light,8/28/2016 23:16,8/28/2016 23:56,0,US/Mountain,K04V,38.0972,-106.1689,Saguache,Saguache,CO,81149
W-429,Rain,Light,8/29/2016 0:16,8/29/2016 0:36,0,US/Mountain,K04V,38.0972,-106.1689,Saguache,Saguache,CO,81149
W-430,Rain,Light,8/29/2016 1:16,8/29/2016 1:36,0,US/Mountain,K04V,38.0972,-106.1689,Saguache,Saguache,CO,81149
W-431,Rain,Light,8/29/2016 1:56,8/29/2016 2:16,0,US/Mountain,K04V,38.0972,-106.1689,Saguache,Saguache,CO,81149
W-432,Rain,Light,8/29/2016 2:36,8/29/2016 2:56,0,US/Mountain,K04V,38.0972,-106.1689,Saguache,Saguache,CO,81149
W-433,Rain,Light,8/29/2016 3:16,8/29/2016 3:36,0,US/Mountain,K04V,38.0972,-106.1689,Saguache,Saguache,CO,81149
W-434,Rain,Light,8/29/2016 4:16,8/29/2016 4:36,0,US/Mountain,K04V,38.0972,-106.1689,Saguache,Saguache,CO,81149
W-435,Rain,Light,8/29/2016 6:16,8/29/2016 6:56,0,US/Mountain,K04V,38.0972,-106.1689,Saguache,Saguache,CO,81149
W-436,Rain,Light,8/29/2016 10:16,8/29/2016 10:36,0.01,US/Mountain,K04V,38.0972,-106.1689,Saguache,Saguache,CO,81149
W-437,Rain,Light,8/29/2016 10:56,8/29/2016 11:16,0,US/Mountain,K04V,38.0972,-106.1689,Saguache,Saguache,CO,81149
W-438,Rain,Light,8/29/2016 11:56,8/29/2016 12:16,0,US/Mountain,K04V,38.0972,-106.1689,Saguache,Saguache,CO,81149
W-439,Rain,Light,8/29/2016 12:36,8/29/2016 12:56,0,US/Mountain,K04V,38.0972,-106.1689,Saguache,Saguache,CO,81149
W-440,Rain,Light,8/29/2016 19:16,8/29/2016 21:36,0,US/Mountain,K04V,38.0972,-106.1689,Saguache,Saguache,CO,81149
W-441,Rain,Light,8/29/2016 21:56,8/29/2016 23:16,0,US/Mountain,K04V,38.0972,-106.1689,Saguache,Saguache,CO,81149
W-442,Rain,Moderate,8/29/2016 23:16,8/29/2016 23:36,0.28,US/Mountain,K04V,38.0972,-106.1689,Saguache,Saguache,CO,81149
W-443,Rain,Heavy,8/29/2016 23:36,8/29/2016 23:56,0.46,US/Mountain,K04V,38.0972,-106.1689,Saguache,Saguache,CO,81149
W-444,Rain,Light,8/29/2016 23:56,8/30/2016 0:16,0,US/Mountain,K04V,38.0972,-106.1689,Saguache,Saguache,CO,81149
W-445,Rain,Light,8/30/2016 20:56,8/30/2016 21:16,0,US/Mountain,K04V,38.0972,-106.1689,Saguache,Saguache,CO,81149
W-446,Rain,Light,8/30/2016 23:56,8/31/2016 0:16,0,US/Mountain,K04V,38.0972,-106.1689,Saguache,Saguache,CO,81149
W-447,Rain,Light,8/31/2016 20:36,8/31/2016 21:16,0,US/Mountain,K04V,38.0972,-106.1689,Saguache,Saguache,CO,81149
W-448,Rain,Light,8/31/2016 23:56,9/1/2016 0:16,0,US/Mountain,K04V,38.0972,-106.1689,Saguache,Saguache,CO,81149
W-449,Rain,Light,9/1/2016 0:56,9/1/2016 1:16,0,US/Mountain,K04V,38.0972,-106.1689,Saguache,Saguache,CO,81149
W-450,Rain,Light,9/1/2016 2:36,9/1/2016 2:56,0,US/Mountain,K04V,38.0972,-106.1689,Saguache,Saguache,CO,81149
W-451,Rain,Light,9/1/2016 4:56,9/1/2016 5:16,0,US/Mountain,K04V,38.0972,-106.1689,Saguache,Saguache,CO,81149
W-452,Rain,Light,9/1/2016 19:56,9/1/2016 20:56,0,US/Mountain,K04V,38.0972,-106.1689,Saguache,Saguache,CO,81149
W-453,Rain,Light,9/1/2016 23:16,9/1/2016 23:36,0,US/Mountain,K04V,38.0972,-106.1689,Saguache,Saguache,CO,81149
W-454,Rain,Light,9/3/2016 7:36,9/3/2016 7:56,0,US/Mountain,K04V,38.0972,-106.1689,Saguache,Saguache,CO,81149
W-455,Rain,Light,9/3/2016 8:16,9/3/2016 8:36,0,US/Mountain,K04V,38.0972,-106.1689,Saguache,Saguache,CO,81149
W-456,Rain,Light,9/3/2016 10:16,9/3/2016 10:36,0,US/Mountain,K04V,38.0972,-106.1689,Saguache,Saguache,CO,81149
W-457,Rain,Light,9/3/2016 12:56,9/3/2016 13:16,0,US/Mountain,K04V,38.0972,-106.1689,Saguache,Saguache,CO,81149
W-458,Rain,Light,9/3/2016 15:36,9/3/2016 15:56,0,US/Mountain,K04V,38.0972,-106.1689,Saguache,Saguache,CO,81149
W-459,Rain,Light,9/3/2016 16:56,9/3/2016 17:36,0,US/Mountain,K04V,38.0972,-106.1689,Saguache,Saguache,CO,81149
W-460,Rain,Light,9/3/2016 19:36,9/3/2016 19:56,0,US/Mountain,K04V,38.0972,-106.1689,Saguache,Saguache,CO,81149
W-461,Rain,Light,9/3/2016 22:36,9/3/2016 22:56,0.04,US/Mountain,K04V,38.0972,-106.1689,Saguache,Saguache,CO,81149
W-462,Rain,Light,9/3/2016 23:16,9/3/2016 23:36,0,US/Mountain,K04V,38.0972,-106.1689,Saguache,Saguache,CO,81149
W-463,Rain,Light,9/4/2016 0:36,9/4/2016 1:36,0,US/Mountain,K04V,38.0972,-106.1689,Saguache,Saguache,CO,81149
W-464,Rain,Light,9/4/2016 14:36,9/4/2016 14:56,0,US/Mountain,K04V,38.0972,-106.1689,Saguache,Saguache,CO,81149
W-465,Rain,Light,9/4/2016 17:16,9/4/2016 17:36,0,US/Mountain,K04V,38.0972,-106.1689,Saguache,Saguache,CO,81149
W-466,Rain,Light,9/11/2016 22:56,9/11/2016 23:36,0,US/Mountain,K04V,38.0972,-106.1689,Saguache,Saguache,CO,81149
W-467,Rain,Light,9/12/2016 0:36,9/12/2016 0:56,0,US/Mountain,K04V,38.0972,-106.1689,Saguache,Saguache,CO,81149
W-468,Rain,Light,9/12/2016 1:36,9/12/2016 1:56,0,US/Mountain,K04V,38.0972,-106.1689,Saguache,Saguache,CO,81149
W-469,Rain,Light,9/12/2016 4:16,9/12/2016 4:36,0,US/Mountain,K04V,38.0972,-106.1689,Saguache,Saguache,CO,81149
W-470,Rain,Light,9/12/2016 5:36,9/12/2016 5:56,0,US/Mountain,K04V,38.0972,-106.1689,Saguache,Saguache,CO,81149
W-471,Rain,Light,9/12/2016 21:36,9/12/2016 22:16,0,US/Mountain,K04V,38.0972,-106.1689,Saguache,Saguache,CO,81149
W-472,Rain,Light,9/14/2016 1:36,9/14/2016 1:56,0,US/Mountain,K04V,38.0972,-106.1689,Saguache,Saguache,CO,81149
W-473,Rain,Light,9/14/2016 10:16,9/14/2016 10:36,0,US/Mountain,K04V,38.0972,-106.1689,Saguache,Saguache,CO,81149
W-474,Rain,Light,9/14/2016 19:56,9/14/2016 20:16,0,US/Mountain,K04V,38.0972,-106.1689,Saguache,Saguache,CO,81149
W-475,Rain,Light,9/14/2016 23:36,9/14/2016 23:56,0,US/Mountain,K04V,38.0972,-106.1689,Saguache,Saguache,CO,81149
W-476,Rain,Light,9/15/2016 1:16,9/15/2016 1:36,0,US/Mountain,K04V,38.0972,-106.1689,Saguache,Saguache,CO,81149
W-477,Rain,Light,9/15/2016 2:16,9/15/2016 2:36,0,US/Mountain,K04V,38.0972,-106.1689,Saguache,Saguache,CO,81149
W-478,Rain,Moderate,9/15/2016 2:36,9/15/2016 2:56,0.18,US/Mountain,K04V,38.0972,-106.1689,Saguache,Saguache,CO,81149
W-479,Rain,Light,9/30/2016 23:57,10/1/2016 0:37,0,US/Mountain,K04V,38.0972,-106.1689,Saguache,Saguache,CO,81149
W-480,Rain,Light,10/3/2016 9:17,10/3/2016 9:37,0,US/Mountain,K04V,38.0972,-106.1689,Saguache,Saguache,CO,81149
W-481,Rain,Light,10/3/2016 11:57,10/3/2016 12:17,0,US/Mountain,K04V,38.0972,-106.1689,Saguache,Saguache,CO,81149
W-482,Rain,Light,10/3/2016 15:17,10/3/2016 15:37,0.01,US/Mountain,K04V,38.0972,-106.1689,Saguache,Saguache,CO,81149
W-483,Rain,Light,10/3/2016 15:57,10/3/2016 16:17,0,US/Mountain,K04V,38.0972,-106.1689,Saguache,Saguache,CO,81149
W-484,Snow,Light,10/6/2016 13:17,10/6/2016 14:17,0,US/Mountain,K04V,38.0972,-106.1689,Saguache,Saguache,CO,81149
W-485,Rain,Light,10/9/2016 21:17,10/9/2016 21:57,0,US/Mountain,K04V,38.0972,-106.1689,Saguache,Saguache,CO,81149
W-486,Rain,Light,10/9/2016 23:57,10/10/2016 0:17,0,US/Mountain,K04V,38.0972,-106.1689,Saguache,Saguache,CO,81149
W-487,Rain,Light,10/10/2016 22:37,10/10/2016 23:17,0,US/Mountain,K04V,38.0972,-106.1689,Saguache,Saguache,CO,81149
W-488,Rain,Light,10/11/2016 12:37,10/11/2016 12:57,0,US/Mountain,K04V,38.0972,-106.1689,Saguache,Saguache,CO,81149
W-489,Rain,Light,10/11/2016 16:57,10/11/2016 17:17,0,US/Mountain,K04V,38.0972,-106.1689,Saguache,Saguache,CO,81149
W-490,Rain,Light,10/11/2016 19:37,10/11/2016 19:57,0,US/Mountain,K04V,38.0972,-106.1689,Saguache,Saguache,CO,81149
W-491,Rain,Light,10/11/2016 20:57,10/11/2016 21:15,0,US/Mountain,K04V,38.0972,-106.1689,Saguache,Saguache,CO,81149
W-492,Rain,Light,10/11/2016 22:57,10/11/2016 23:37,0.01,US/Mountain,K04V,38.0972,-106.1689,Saguache,Saguache,CO,81149
W-493,Rain,Light,11/5/2016 11:17,11/5/2016 16:37,0.16,US/Mountain,K04V,38.0972,-106.1689,Saguache,Saguache,CO,81149
W-494,Rain,Light,11/6/2016 0:37,11/6/2016 0:57,0,US/Mountain,K04V,38.0972,-106.1689,Saguache,Saguache,CO,81149
W-495,Rain,Light,11/6/2016 17:57,11/6/2016 18:17,0,US/Mountain,K04V,38.0972,-106.1689,Saguache,Saguache,CO,81149
W-496,Cold,Severe,11/7/2016 21:37,11/7/2016 22:17,0,US/Mountain,K04V,38.0972,-106.1689,Saguache,Saguache,CO,81149
W-497,Cold,Severe,11/7/2016 22:37,11/7/2016 23:29,0,US/Mountain,K04V,38.0972,-106.1689,Saguache,Saguache,CO,81149
W-498,Snow,Light,11/17/2016 16:09,11/17/2016 16:49,0,US/Mountain,K04V,38.0972,-106.1689,Saguache,Saguache,CO,81149
